{
  "type": "FeatureCollection",
  "features": [
    {
      "type": "Feature",
      "properties": {
        "norad_id": 35020,
        "name": "COSMOS 2251 DEB",
        "group": "cosmos-2251-debris",
        "lat": -9.806765331613706,
        "lon": 37.41631712112301,
        "alt_km": 737.259849195294,
        "timestamp": "2025-12-04T13:52:00.837479+00:00",
        "meta_object_name": "COSMOS 2251 DEB",
        "meta_object_id": "1993-036AGH",
        "meta_epoch": "2025-12-03T23:51:51.836544",
        "meta_mean_motion": 14.62782261,
        "meta_eccentricity": 0.00907882,
        "meta_inclination": 74.0466,
        "meta_ra_of_asc_node": 215.6994,
        "meta_arg_of_pericenter": 331.8391,
        "meta_mean_anomaly": 27.7881,
        "meta_ephemeris_type": 0,
        "meta_classification_type": "U",
        "meta_norad_cat_id": 35020,
        "meta_element_set_no": 999,
        "meta_rev_at_epoch": 88110,
        "meta_bstar": 0.00032056499,
        "meta_mean_motion_dot": 1.702e-05,
        "meta_mean_motion_ddot": 0,
        "tle_line1": "1 35020U 93036AGH 25337.99434996  .00001702  00000+0  32056-3 0  9992",
        "tle_line2": "2 35020  74.0466 215.6994 0090788 331.8391  27.7881 14.62782261881105"
      },
      "geometry": {
        "type": "Point",
        "coordinates": [
          37.41631712112301,
          -9.806765331613706
        ]
      }
    },
    {
      "type": "Feature",
      "properties": {
        "norad_id": 35022,
        "name": "COSMOS 2251 DEB",
        "group": "cosmos-2251-debris",
        "lat": -55.41345013001505,
        "lon": -47.006894216055144,
        "alt_km": 714.7184890749804,
        "timestamp": "2025-12-04T13:52:00.837489+00:00",
        "meta_object_name": "COSMOS 2251 DEB",
        "meta_object_id": "1993-036AGK",
        "meta_epoch": "2025-12-02T17:45:34.658208",
        "meta_mean_motion": 14.60763876,
        "meta_eccentricity": 0.00472905,
        "meta_inclination": 74.0262,
        "meta_ra_of_asc_node": 341.0512,
        "meta_arg_of_pericenter": 183.6288,
        "meta_mean_anomaly": 176.4543,
        "meta_ephemeris_type": 0,
        "meta_classification_type": "U",
        "meta_norad_cat_id": 35022,
        "meta_element_set_no": 999,
        "meta_rev_at_epoch": 58997,
        "meta_bstar": 0.00056913021,
        "meta_mean_motion_dot": 2.791e-05,
        "meta_mean_motion_ddot": 0,
        "tle_line1": "1 35022U 93036AGK 25336.73998447  .00002791  00000+0  56913-3 0  9998",
        "tle_line2": "2 35022  74.0262 341.0512 0047290 183.6288 176.4543 14.60763876589975"
      },
      "geometry": {
        "type": "Point",
        "coordinates": [
          -47.006894216055144,
          -55.41345013001505
        ]
      }
    },
    {
      "type": "Feature",
      "properties": {
        "norad_id": 35023,
        "name": "COSMOS 2251 DEB",
        "group": "cosmos-2251-debris",
        "lat": -13.948025788271485,
        "lon": 53.117322644098095,
        "alt_km": 597.3713843455635,
        "timestamp": "2025-12-04T13:52:00.837500+00:00",
        "meta_object_name": "COSMOS 2251 DEB",
        "meta_object_id": "1993-036AGL",
        "meta_epoch": "2025-12-03T21:30:43.062336",
        "meta_mean_motion": 14.94619992,
        "meta_eccentricity": 0.003445,
        "meta_inclination": 74.0388,
        "meta_ra_of_asc_node": 230.4137,
        "meta_arg_of_pericenter": 309.9372,
        "meta_mean_anomaly": 179.6573,
        "meta_ephemeris_type": 0,
        "meta_classification_type": "U",
        "meta_norad_cat_id": 35023,
        "meta_element_set_no": 999,
        "meta_rev_at_epoch": 88147,
        "meta_bstar": 0.0033983,
        "meta_mean_motion_dot": 0.00037404,
        "meta_mean_motion_ddot": 0,
        "tle_line1": "1 35023U 93036AGL 25337.89633174  .00037404  00000+0  33983-2 0  9990",
        "tle_line2": "2 35023  74.0388 230.4137 0034450 309.9372 179.6573 14.94619992881474"
      },
      "geometry": {
        "type": "Point",
        "coordinates": [
          53.117322644098095,
          -13.948025788271485
        ]
      }
    },
    {
      "type": "Feature",
      "properties": {
        "norad_id": 35025,
        "name": "COSMOS 2251 DEB",
        "group": "cosmos-2251-debris",
        "lat": -20.48170958787911,
        "lon": -94.90506802268042,
        "alt_km": 710.1464444567227,
        "timestamp": "2025-12-04T13:52:00.837510+00:00",
        "meta_object_name": "COSMOS 2251 DEB",
        "meta_object_id": "1993-036AGN",
        "meta_epoch": "2025-12-03T01:05:05.186688",
        "meta_mean_motion": 14.72628151,
        "meta_eccentricity": 0.00846667,
        "meta_inclination": 73.9382,
        "meta_ra_of_asc_node": 81.9179,
        "meta_arg_of_pericenter": 356.9044,
        "meta_mean_anomaly": 3.1592,
        "meta_ephemeris_type": 0,
        "meta_classification_type": "U",
        "meta_norad_cat_id": 35025,
        "meta_element_set_no": 999,
        "meta_rev_at_epoch": 88500,
        "meta_bstar": 0.00048771001,
        "meta_mean_motion_dot": 3.252e-05,
        "meta_mean_motion_ddot": 0,
        "tle_line1": "1 35025U 93036AGN 25337.04519892  .00003252  00000+0  48771-3 0  9995",
        "tle_line2": "2 35025  73.9382  81.9179 0084666 356.9044   3.1592 14.72628151885003"
      },
      "geometry": {
        "type": "Point",
        "coordinates": [
          -94.90506802268042,
          -20.48170958787911
        ]
      }
    },
    {
      "type": "Feature",
      "properties": {
        "norad_id": 35026,
        "name": "COSMOS 2251 DEB",
        "group": "cosmos-2251-debris",
        "lat": -73.97616361816725,
        "lon": -110.67253496950774,
        "alt_km": 779.1494307167623,
        "timestamp": "2025-12-04T13:52:00.837519+00:00",
        "meta_object_name": "COSMOS 2251 DEB",
        "meta_object_id": "1993-036AGP",
        "meta_epoch": "2025-12-04T06:05:20.431680",
        "meta_mean_motion": 14.53615447,
        "meta_eccentricity": 0.00822497,
        "meta_inclination": 74.0467,
        "meta_ra_of_asc_node": 334.8227,
        "meta_arg_of_pericenter": 90.6977,
        "meta_mean_anomaly": 285.5237,
        "meta_ephemeris_type": 0,
        "meta_classification_type": "U",
        "meta_norad_cat_id": 35026,
        "meta_element_set_no": 999,
        "meta_rev_at_epoch": 88020,
        "meta_bstar": 0.00011976131,
        "meta_mean_motion_dot": 4.94e-06,
        "meta_mean_motion_ddot": 0,
        "tle_line1": "1 35026U 93036AGP 25338.25370870  .00000494  00000+0  11976-3 0  9993",
        "tle_line2": "2 35026  74.0467 334.8227 0082249  90.6977 285.5237 14.53615447880208"
      },
      "geometry": {
        "type": "Point",
        "coordinates": [
          -110.67253496950774,
          -73.97616361816725
        ]
      }
    },
    {
      "type": "Feature",
      "properties": {
        "norad_id": 35028,
        "name": "COSMOS 2251 DEB",
        "group": "cosmos-2251-debris",
        "lat": -59.14489852707178,
        "lon": -102.15663588331941,
        "alt_km": 744.7105266194767,
        "timestamp": "2025-12-04T13:52:00.837530+00:00",
        "meta_object_name": "COSMOS 2251 DEB",
        "meta_object_id": "1993-036AGR",
        "meta_epoch": "2025-12-03T07:31:08.250816",
        "meta_mean_motion": 14.56553316,
        "meta_eccentricity": 0.0082193,
        "meta_inclination": 74.0379,
        "meta_ra_of_asc_node": 288.8678,
        "meta_arg_of_pericenter": 65.1818,
        "meta_mean_anomaly": 84.6032,
        "meta_ephemeris_type": 0,
        "meta_classification_type": "U",
        "meta_norad_cat_id": 35028,
        "meta_element_set_no": 999,
        "meta_rev_at_epoch": 88148,
        "meta_bstar": 0.00016513,
        "meta_mean_motion_dot": 7.39e-06,
        "meta_mean_motion_ddot": 0,
        "tle_line1": "1 35028U 93036AGR 25337.31328994  .00000739  00000+0  16513-3 0  9995",
        "tle_line2": "2 35028  74.0379 288.8678 0082193  65.1818  84.6032 14.56553316881480"
      },
      "geometry": {
        "type": "Point",
        "coordinates": [
          -102.15663588331941,
          -59.14489852707178
        ]
      }
    },
    {
      "type": "Feature",
      "properties": {
        "norad_id": 35031,
        "name": "COSMOS 2251 DEB",
        "group": "cosmos-2251-debris",
        "lat": 24.320946182672827,
        "lon": -78.2679477493867,
        "alt_km": 750.5102944718528,
        "timestamp": "2025-12-04T13:52:00.837540+00:00",
        "meta_object_name": "COSMOS 2251 DEB",
        "meta_object_id": "1993-036AGU",
        "meta_epoch": "2025-12-04T03:44:01.634208",
        "meta_mean_motion": 14.38277521,
        "meta_eccentricity": 0.00184824,
        "meta_inclination": 74.0384,
        "meta_ra_of_asc_node": 275.0774,
        "meta_arg_of_pericenter": 10.3454,
        "meta_mean_anomaly": 349.8076,
        "meta_ephemeris_type": 0,
        "meta_classification_type": "U",
        "meta_norad_cat_id": 35031,
        "meta_element_set_no": 999,
        "meta_rev_at_epoch": 65160,
        "meta_bstar": 0.00035811322,
        "meta_mean_motion_dot": 1.065e-05,
        "meta_mean_motion_ddot": 0,
        "tle_line1": "1 35031U 93036AGU 25338.15557447  .00001065  00000+0  35811-3 0  9994",
        "tle_line2": "2 35031  74.0384 275.0774 0018482  10.3454 349.8076 14.38277521651607"
      },
      "geometry": {
        "type": "Point",
        "coordinates": [
          -78.2679477493867,
          24.320946182672827
        ]
      }
    }
  ]
}